NORAD_CAT_ID,OBJECT_NAME,OBJECT_TYPE,EPOCH,MEAN_MOTION,ECCENTRICITY,INCLINATION,RA_OF_ASC_NODE,ARG_OF_PERICENTER,MEAN_ANOMALY,BSTAR,MEAN_MOTION_DOT,MEAN_MOTION_DDOT,TLE_LINE0,TLE_LINE1,TLE_LINE2,SEMIMAJOR_AXIS,PERIOD,APOGEE,PERIGEE,DECAYED
53749.0,STARLINK-4680,PAYLOAD,2024-07-18 22:19:23,15.15698059,0.0001938,53.2172,69.0838,174.6309,185.4707,0.0030345,0.00058643,0.0,0 STARLINK-4680,1 53749U 22107BB  24200.93012739  .00058643  00000-0  30345-2 0  9995,2 53749  53.2172  69.0838 0001938 174.6309 185.4707 15.15698059104247,6896.997,95.006,520.199,517.525,0.0
53749.0,STARLINK-4680,PAYLOAD,2024-07-19 22:03:38,15.15807839,0.0001921,53.2167,64.5965,184.0321,176.0659,0.0025507,0.00049334,0.0,0 STARLINK-4680,1 53749U 22107BB  24201.91919010  .00049334  00000-0  25507-2 0  9993,2 53749  53.2167  64.5965 0001921 184.0321 176.0659 15.15807839103613,6896.664,94.999,519.854,517.204,0.0
53749.0,STARLINK-4680,PAYLOAD,2024-07-20 07:33:18,15.15852609,0.0001915,53.2165,62.802,186.9297,173.1672,0.0025371,0.00049131,0.0,0 STARLINK-4680,1 53749U 22107BB  24202.31479480  .00049131  00000-0  25371-2 0  9994,2 53749  53.2165  62.8020 0001915 186.9297 173.1672 15.15852609104451,6896.528,94.996,519.714,517.073,0.0
53749.0,STARLINK-4680,PAYLOAD,2024-07-20 21:47:46,15.15918335,0.0001969,53.2163,60.1087,192.0098,168.085,0.0028019,0.00054433,0.0,0 STARLINK-4680,1 53749U 22107BB  24202.90818081  .00054433  00000-0  28019-2 0  9996,2 53749  53.2163  60.1087 0001969 192.0098 168.0850 15.15918335103762,6896.329,94.992,519.552,516.836,0.0
53749.0,STARLINK-4680,PAYLOAD,2024-07-21 21:31:49,15.16025424,0.0002008,53.2155,55.6199,200.3355,159.756,0.0029124,0.00056784,0.0,0 STARLINK-4680,1 53749U 22107BB  24203.89710034  .00056784  00000-0  29124-2 0  9993,2 53749  53.2155  55.6199 0002008 200.3355 159.7560 15.16025424104697,6896.004,94.985,519.254,516.484,0.0
53749.0,STARLINK-4680,PAYLOAD,2024-07-22 13:21:07,15.16099135,0.0001958,53.2152,52.6275,205.8089,154.2809,0.0032565,0.00063725,0.0,0 STARLINK-4680,1 53749U 22107BB  24204.55634190  .00063725  00000-0  32565-2 0  9991,2 53749  53.2152  52.6275 0001958 205.8089 154.2809 15.16099135104015,6895.781,94.981,518.996,516.296,0.0
53749.0,STARLINK-4680,PAYLOAD,2024-07-22 22:50:41,15.16149144,0.0001969,53.2147,50.8307,209.9148,150.1735,0.0031275,0.00061255,0.0,0 STARLINK-4680,1 53749U 22107BB  24204.95187006  .00061255  00000-0  31275-2 0  9997,2 53749  53.2147  50.8307 0001969 209.9148 150.1735 15.16149144104859,6895.629,94.977,518.852,516.136,0.0
53749.0,STARLINK-4680,PAYLOAD,2024-07-23 22:34:31,15.16242459,0.0002042,53.2141,46.3411,217.2804,142.805,0.0029274,0.00057438,0.0,0 STARLINK-4680,1 53749U 22107BB  24205.94064501  .00057438  00000-0  29274-2 0  9995,2 53749  53.2141  46.3411 0002042 217.2804 142.8050 15.16242459105002,6895.346,94.972,518.619,515.803,0.0
53749.0,STARLINK-4680,PAYLOAD,2024-07-24 12:48:47,15.16288954,0.000209,53.2128,43.6465,226.2277,133.8546,0.0025092,0.00049198,0.0,0 STARLINK-4680,1 53749U 22107BB  24206.53388253  .00049198  00000-0  25092-2 0  9992,2 53749  53.2128  43.6465 0002090 226.2277 133.8546 15.16288954104316,6895.205,94.969,518.511,515.629,0.0
53749.0,STARLINK-4680,PAYLOAD,2024-07-25 22:01:57,15.16410608,0.0001874,53.2147,37.361,231.7055,128.3772,0.0020934,0.0004109,0.0,0 STARLINK-4680,1 53749U 22107BB  24207.91802289  .00041090  00000-0  20934-2 0  9998,2 53749  53.2147  37.3610 0001874 231.7055 128.3772 15.16410608105306,6894.836,94.961,517.993,515.409,0.0
53749.0,STARLINK-4680,PAYLOAD,2024-07-26 05:56:29,15.16447191,0.0002045,53.2134,35.8628,230.5479,129.5336,0.002528,0.00049797,0.0,0 STARLINK-4680,1 53749U 22107BB  24208.24756293  .00049797  00000-0  25280-2 0  9999,2 53749  53.2134  35.8628 0002045 230.5479 129.5336 15.16447191104576,6894.726,94.959,518.0,515.181,0.0
53749.0,STARLINK-4680,PAYLOAD,2024-07-26 21:45:32,15.1651731,0.0001976,53.2131,32.8691,236.6224,123.4583,0.0026745,0.00052829,0.0,0 STARLINK-4680,1 53749U 22107BB  24208.90662140  .00052829  00000-0  26745-2 0  9996,2 53749  53.2131  32.8691 0001976 236.6224 123.4583 15.16517310105453,6894.513,94.954,517.74,515.016,0.0
53749.0,STARLINK-4680,PAYLOAD,2024-07-26 23:20:26,15.16522137,0.0002012,53.213,32.5688,235.7534,124.3271,0.0025477,0.00050299,0.0,0 STARLINK-4680,1 53749U 22107BB  24208.97252565  .00050299  00000-0  25477-2 0  9999,2 53749  53.2130  32.5688 0002012 235.7534 124.3271 15.16522137105469,6894.498,94.954,517.751,514.976,0.0
53749.0,STARLINK-4680,PAYLOAD,2024-07-27 11:59:38,15.16571062,0.0001971,53.213,30.1739,240.9292,119.1506,0.0023665,0.00046742,0.0,0 STARLINK-4680,1 53749U 22107BB  24209.49975037  .00046742  00000-0  23665-2 0  9998,2 53749  53.2130  30.1739 0001971 240.9292 119.1506 15.16571062104768,6894.35,94.951,517.574,514.856,0.0
53749.0,STARLINK-4680,PAYLOAD,2024-07-28 19:37:32,15.16689242,0.0001954,53.2152,24.1877,259.4014,100.6761,0.0022075,0.0004371,0.0,0 STARLINK-4680,1 53749U 22107BB  24210.81773775  .00043710  00000-0  22075-2 0  9997,2 53749  53.2152  24.1877 0001954 259.4014 100.6761 15.16689242104966,6893.992,94.944,517.204,514.51,0.0
53749.0,STARLINK-4680,PAYLOAD,2024-07-29 20:55:45,15.16785866,0.0002043,53.2155,19.3964,268.8456,91.2305,0.0023608,0.00046918,0.0,0 STARLINK-4680,1 53749U 22107BB  24211.87205375  .00046918  00000-0  23608-2 0  9996,2 53749  53.2155  19.3964 0002043 268.8456  91.2305 15.16785866105123,6893.699,94.938,516.973,514.156,0.0
53749.0,STARLINK-4680,PAYLOAD,2024-07-30 04:50:10,15.16818633,0.0002071,53.2156,17.8989,271.9553,88.1205,0.0026129,0.00052047,0.0,0 STARLINK-4680,1 53749U 22107BB  24212.20151429  .00052047  00000-0  26129-2 0  9995,2 53749  53.2156  17.8989 0002071 271.9553  88.1205 15.16818633105952,6893.6,94.936,516.893,514.037,0.0
53749.0,STARLINK-4680,PAYLOAD,2024-07-30 17:29:14,15.16880136,0.0002108,53.2159,15.5029,276.3504,83.7252,0.0032067,0.00064167,0.0,0 STARLINK-4680,1 53749U 22107BB  24212.72863503  .00064167  00000-0  32067-2 0  9999,2 53749  53.2159  15.5029 0002108 276.3504  83.7252 15.16880136105254,6893.414,94.932,516.732,513.825,0.0
53749.0,STARLINK-4680,PAYLOAD,2024-07-31 14:02:38,15.16961981,0.0002199,53.2165,11.6085,281.8037,78.2712,0.002481,0.00049591,0.0,0 STARLINK-4680,1 53749U 22107BB  24213.58516367  .00049591  00000-0  24810-2 0  9998,2 53749  53.2165  11.6085 0002199 281.8037  78.2712 15.16961981106161,6893.166,94.927,516.546,513.515,0.0
53749.0,STARLINK-4680,PAYLOAD,2024-07-31 20:22:07,15.16994122,0.0002302,53.2162,10.4114,287.2542,72.8202,0.0029131,0.00058408,0.0,0 STARLINK-4680,1 53749U 22107BB  24213.84870168  .00058408  00000-0  29131-2 0  9997,2 53749  53.2162  10.4114 0002302 287.2542  72.8202 15.16994122105420,6893.068,94.925,516.52,513.346,0.0
53749.0,STARLINK-4680,PAYLOAD,2024-08-01 10:35:57,15.1707516,0.0002396,53.2164,7.7153,290.1481,69.9257,0.0037646,0.00075933,0.0,0 STARLINK-4680,1 53749U 22107BB  24214.44164088  .00075933  00000-0  37646-2 0  9993,2 53749  53.2164   7.7153 0002396 290.1481  69.9257 15.17075160106298,6892.823,94.919,516.339,513.036,0.0
53749.0,STARLINK-4680,PAYLOAD,2024-08-01 16:55:25,15.17096929,0.0002526,53.2166,6.5173,292.7585,67.3144,0.0029813,0.00059973,0.0,0 STARLINK-4680,1 53749U 22107BB  24214.70515998  .00059973  00000-0  29813-2 0  9995,2 53749  53.2166   6.5173 0002526 292.7585  67.3144 15.17096929106335,6892.757,94.918,516.363,512.881,0.0
53749.0,STARLINK-4680,PAYLOAD,2024-08-02 13:28:37,15.17234281,0.0002706,53.2184,2.6198,300.5318,59.5411,0.0031179,0.0006301,0.0,0 STARLINK-4680,1 53749U 22107BB  24215.56154346  .00063010  00000-0  31179-2 0  9991,2 53749  53.2184   2.6198 0002706 300.5318  59.5411 15.17234281105683,6892.341,94.91,516.071,512.341,0.0
53749.0,STARLINK-4680,PAYLOAD,2024-08-02 15:03:28,15.17244124,0.0002493,53.2179,2.3214,302.3995,57.6759,0.0032078,0.00064871,0.0,0 STARLINK-4680,1 53749U 22107BB  24215.62741645  .00064871  00000-0  32078-2 0  9997,2 53749  53.2179   2.3214 0002493 302.3995  57.6759 15.17244124106476,6892.311,94.909,515.894,512.458,0.0
53749.0,STARLINK-4680,PAYLOAD,2024-08-02 16:38:20,15.17256002,0.0002552,53.2178,2.021,301.144,58.9305,0.0033417,0.00067641,0.0,0 STARLINK-4680,1 53749U 22107BB  24215.69328845  .00067641  00000-0  33417-2 0  9993,2 53749  53.2178   2.0210 0002552 301.1440  58.9305 15.17256002106486,6892.275,94.908,515.899,512.381,0.0
53749.0,STARLINK-4680,PAYLOAD,2024-08-03 13:11:26,15.17322673,0.0002654,53.2171,358.1288,303.4637,56.6105,0.0018724,0.00037678,0.0,0 STARLINK-4680,1 53749U 22107BB  24216.54960828  .00037678  00000-0  18724-2 0  9992,2 53749  53.2171 358.1288 0002654 303.4637  56.6105 15.17322673105834,6892.073,94.904,515.767,512.109,0.0
53749.0,STARLINK-4680,PAYLOAD,2024-08-03 14:46:17,15.17329073,0.0002613,53.2172,357.8291,304.4172,55.6577,0.0019475,0.00039217,0.0,0 STARLINK-4680,1 53749U 22107BB  24216.61547740  .00039217  00000-0  19475-2 0  9999,2 53749  53.2172 357.8291 0002613 304.4172  55.6577 15.17329073106626,6892.054,94.904,515.72,512.118,0.0
53749.0,STARLINK-4680,PAYLOAD,2024-08-03 19:30:50,15.17353519,0.0002662,53.2173,356.931,305.495,54.5797,0.0024192,0.00048892,0.0,0 STARLINK-4680,1 53749U 22107BB  24216.81308296  .00048892  00000-0  24192-2 0  9993,2 53749  53.2173 356.9310 0002662 305.4950  54.5797 15.17353519106655,6891.98,94.902,515.679,512.01,0.0
53749.0,STARLINK-4680,PAYLOAD,2024-08-04 14:29:01,15.17422427,0.0002788,53.2174,353.3355,309.4628,50.6121,0.0024619,0.00049866,0.0,0 STARLINK-4680,1 53749U 22107BB  24217.60348385  .00049866  00000-0  24619-2 0  9990,2 53749  53.2174 353.3355 0002788 309.4628  50.6121 15.17422427106777,6891.771,94.898,515.557,511.715,0.0
53749.0,STARLINK-4680,PAYLOAD,2024-08-04 16:03:51,15.17429728,0.0002801,53.2174,353.0359,309.8008,50.2741,0.0025152,0.00050971,0.0,0 STARLINK-4680,1 53749U 22107BB  24217.66934866  .00050971  00000-0  25152-2 0  9993,2 53749  53.2174 353.0359 0002801 309.8008  50.2741 15.17429728106001,6891.749,94.897,515.544,511.684,0.0
